[{"OBJECT_NAME":"STARLINK-30151","OBJECT_ID":"2023-079E","EPOCH":"2026-03-09T22:00:01.999584","MEAN_MOTION":15.17711074,"ECCENTRICITY":0.00012075,"INCLINATION":43,"RA_OF_ASC_NODE":105.4581,"ARG_OF_PERICENTER":287.8045,"MEAN_ANOMALY":174.4924,"EPHEMERIS_TYPE":0,"CLASSIFICATION_TYPE":"U","NORAD_CAT_ID":56827,"ELEMENT_SET_NO":999,"REV_AT_EPOCH":578,"BSTAR":0.055737382,"MEAN_MOTION_DOT":0.01254348,"MEAN_MOTION_DDOT":0},{"OBJECT_NAME":"CUAVA-2","OBJECT_ID":"2024-149BM","EPOCH":"2026-03-09T11:16:09.234912","MEAN_MOTION":15.33611708,"ECCENTRICITY":0.00056694,"INCLINATION":97.3769,"RA_OF_ASC_NODE":149.9859,"ARG_OF_PERICENTER":291.2139,"MEAN_ANOMALY":68.8497,"EPHEMERIS_TYPE":0,"CLASSIFICATION_TYPE":"U","NORAD_CAT_ID":60527,"ELEMENT_SET_NO":999,"REV_AT_EPOCH":8687,"BSTAR":0.00047570318,"MEAN_MOTION_DOT":0.000154,"MEAN_MOTION_DDOT":0}]
